[{"OBJECT_NAME":"TIANQI-6","OBJECT_ID":"2020-076D","EPOCH":"2026-03-09T22:50:24.728640","MEAN_MOTION":15.06417552,"ECCENTRICITY":0.00106023,"INCLINATION":34.9994,"RA_OF_ASC_NODE":297.1791,"ARG_OF_PERICENTER":9.4595,"MEAN_ANOMALY":350.6312,"EPHEMERIS_TYPE":0,"CLASSIFICATION_TYPE":"U","NORAD_CAT_ID":46810,"ELEMENT_SET_NO":999,"REV_AT_EPOCH":29360,"BSTAR":0.00037023286,"MEAN_MOTION_DOT":5.552e-5,"MEAN_MOTION_DDOT":0},{"OBJECT_NAME":"STARLINK-3836","OBJECT_ID":"2022-051AT","EPOCH":"2026-03-09T11:09:28.167840","MEAN_MOTION":15.08847334,"ECCENTRICITY":0.00013357,"INCLINATION":53.2177,"RA_OF_ASC_NODE":135.1276,"ARG_OF_PERICENTER":88.8035,"MEAN_ANOMALY":271.311,"EPHEMERIS_TYPE":0,"CLASSIFICATION_TYPE":"U","NORAD_CAT_ID":52577,"ELEMENT_SET_NO":999,"REV_AT_EPOCH":21134,"BSTAR":0.00016827616,"MEAN_MOTION_DOT":2.392e-5,"MEAN_MOTION_DDOT":0}]
